STARLINK-1620           
1 46149U 20057AJ  23358.27669335  .00003911  00000+0  28108-3 0  9995
2 46149  53.0542 316.7357 0002388  84.5535 275.5726 15.06428774185460
STARLINK-1629           
1 46150U 20057AK  23358.13941571 -.00004516  00000+0 -28457-3 0  9998
2 46150  53.0557 337.3613 0001528 104.2934 255.8225 15.06384781185161
STARLINK-1631           
1 46151U 20057AL  23358.18181091  .00015814  00000+0  10775-2 0  9991
2 46151  53.0545 317.1728 0001540 108.3251 251.7906 15.06423100185444
STARLINK-1634           
1 46152U 20057AM  23358.36795513  .00012856  00000+0  88016-3 0  9999
2 46152  53.0539 336.3722 0001510  76.6360 283.4798 15.06410639185196
STARLINK-1636           
1 46153U 20057AN  23358.13389105  .00022014  00000+0  14913-2 0  9992
2 46153  53.0548 317.3901 0001583 100.4279 259.6889 15.06421572185431
STARLINK-1642           
1 46154U 20057AP  23358.14403309 -.00009586  00000+0 -62601-3 0  9996
2 46154  53.0553 327.3431 0001616 120.8797 239.2351 15.06369431185292
STARLINK-1667           
1 46155U 20057AQ  23358.23526101  .00009244  00000+0  63827-3 0  9993
2 46155  53.0546 296.9324 0001534  82.5553 277.5610 15.06421476185730
STARLINK-1545           
1 46156U 20057AR  23358.15968971  .00035472  00000+0  23859-2 0  9992
2 46156  53.0543 317.2730 0001598  79.3074 280.8095 15.06437435185453
STARLINK-1587           
1 46157U 20057AS  23358.14679002  .00018417  00000+0  12514-2 0  9992
2 46157  53.0550 297.3351 0001679 108.7260 251.3912 15.06420569185724
STARLINK-1589           
1 46158U 20057AT  23358.27579885  .00006389  00000+0  44717-3 0  9991
2 46158  53.0549 296.7520 0001339  88.7012 271.4130 15.06420119185747
STARLINK-1595           
1 46159U 20057AU  23358.11731138  .00004833  00000+0  34313-3 0  9999
2 46159  53.0545 337.4641 0001740  82.4077 277.7109 15.06399602185151
STARLINK-1598           
1 46160U 20057AV  23357.31192458  .00001784  00000+0  13864-3 0  9998
2 46160  53.0542 321.0871 0001641 123.0820 237.0327 15.06394724185906
STARLINK-1600           
1 46161U 20057AW  23358.28501364  .00017632  00000+0  11989-2 0  9990
2 46161  53.0540 316.7071 0001504 103.0854 257.0303 15.06421933185461
STARLINK-1603           
1 46162U 20057AX  23358.15601267  .00018643  00000+0  12670-2 0  9991
2 46162  53.0541 317.2914 0001382  81.2805 278.8340 15.06403607185451
STARLINK-1610           
1 46163U 20057AY  23358.15416269  .00017909  00000+0  12176-2 0  9993
2 46163  53.0548 297.2981 0001521 103.4090 256.7068 15.06415974185720
STARLINK-1612           
1 46164U 20057AZ  23358.15049869  .00038408  00000+0  25815-2 0  9993
2 46164  53.0541 297.3185 0001281  99.9990 260.1144 15.06426479185728
STARLINK-1613           
1 46165U 20057BA  23357.93154834  .00050830  00000+0  10440-2 0  9999
2 46165  53.0566 251.9079 0005671 129.1284 231.0227 15.45515355185705
STARLINK-1615           
1 46166U 20057BB  23358.13573370  .00002758  00000+0  20394-3 0  9999
2 46166  53.0549 337.3781 0001423  95.5475 264.5676 15.06410696185163
STARLINK-1626           
1 46167U 20057BC  23358.34954442  .00024150  00000+0  16344-2 0  9995
2 46167  53.0546 336.4198 0001418  88.6750 271.4402 15.06404791185192
STARLINK-1627           
1 46168U 20057BD  23358.12930313  .00027154  00000+0  18342-2 0  9990
2 46168  53.0541 287.4954 0001259  80.9235 279.1897 15.06413300185851
STARLINK-1628           
1 46169U 20057BE  23358.36431254  .00012186  00000+0  83513-3 0  9999
2 46169  53.0543 336.7405 0001568  87.3463 272.7705 15.06418114185136
STARLINK-1633           
1 46171U 20057BG  23358.12651846  .00003442  00000+0  24974-3 0  9998
2 46171  53.0548 317.4173 0001641  88.4931 271.6246 15.06416269185436
STARLINK-1635           
1 46172U 20057BH  23358.14127423  .00018414  00000+0  12517-2 0  9994
2 46172  53.0542 317.3541 0001423  85.7020 274.4132 15.06404949185433
STARLINK-1640           
1 46173U 20057BJ  23358.38638149  .00008933  00000+0  61748-3 0  9999
2 46173  53.0540 336.2539 0001696 115.6614 244.4550 15.06422770185199
STARLINK-1641           
1 46174U 20057BK  23358.12835462  .00000319  00000+0  40284-4 0  9992
2 46174  53.0569 337.4139 0001482 102.0590 258.0565 15.06411301185157
STARLINK-1734           
1 46325U 20062A   23358.13988599  .00001952  00000+0  14989-3 0  9993
2 46325  53.0563 352.3639 0001692  84.7679 275.3503 15.06399513183968
STARLINK-1654           
1 46326U 20062B   23358.13761654  .00000572  00000+0  57314-4 0  9992
2 46326  53.0556  37.6131 0001341  75.2940 284.8197 15.06402241182920
STARLINK-1673           
1 46327U 20062C   23357.96066536  .00002623  00000+0  19498-3 0  9999
2 46327  53.0552  38.1672 0001456  88.8905 271.2250 15.06393453182891
STARLINK-1686           
1 46328U 20062D   23358.47116541  .00003542  00000+0  25652-3 0  9999
2 46328  53.0556  15.8762 0001430  74.0125 286.1022 15.06401542183242
STARLINK-1695           
1 46329U 20062E   23358.43799740  .00000638  00000+0  61753-4 0  9990
2 46329  53.0549  16.0199 0001388  95.0618 265.0530 15.06387510183242
STARLINK-1710           
1 46330U 20062F   23358.42693373  .00001924  00000+0  14804-3 0  9999
2 46330  53.0549  16.0744 0001683  81.5851 278.5329 15.06398292183072
STARLINK-1719           
1 46331U 20062G   23358.13021861 -.00001113  00000+0 -55822-4 0  9993
2 46331  53.0573  37.4131 0001475  57.7371 302.3760 15.06395534182922
STARLINK-1721           
1 46332U 20062H   23357.43281601  .00019155  00000+0  75721-3 0  9998
2 46332  53.0420  12.7116 0001945 322.0893  37.9967 15.25523459183035
STARLINK-1723           
1 46333U 20062J   23358.15603360  .00003513  00000+0  25467-3 0  9992
2 46333  53.0556  37.2925 0001565  95.8650 264.2517 15.06395036182920
STARLINK-1725           
1 46334U 20062K   23358.29059424  .00001137  00000+0  95206-4 0  9993
2 46334  53.0559  16.9567 0001802 120.8473 239.2694 15.06396302183225
STARLINK-1727           
1 46335U 20062L   23358.11915684 -.00000718  00000+0 -29352-4 0  9999
2 46335  53.0542  37.4546 0001018 100.8968 259.2136 15.06398230182920
STARLINK-1738           
1 46336U 20062M   23357.44646474 -.00001878  00000+0 -10725-3 0  9994
2 46336  53.0566  20.4712 0001578 112.5578 247.5578 15.06395286182919
STARLINK-1750           
1 46337U 20062N   23358.05833612  .00002579  00000+0  19198-3 0  9995
2 46337  53.0549  17.7311 0001503  77.8190 282.2967 15.06402560183199
STARLINK-1752           
1 46338U 20062P   23358.50618028 -.00001339  00000+0 -71016-4 0  9991
2 46338  53.0538  35.7122 0001351 104.9289 255.1850 15.06397430182974
STARLINK-1759           
1 46340U 20062R   23357.98179552  .00000963  00000+0  83571-4 0  9998
2 46340  53.0556  37.7218 0001189  71.4628 288.6490 15.06391308182901
STARLINK-1760           
1 46341U 20062S   23357.95513171 -.00002355  00000+0 -13926-3 0  9990
2 46341  53.0567  18.2001 0001888 121.0242 239.0933 15.06390535183182
STARLINK-1762           
1 46342U 20062T   23358.39928648  .00006755  00000+0  47185-3 0  9999
2 46342  53.0554  36.1995 0001347  93.6151 266.4992 15.06407456182968
STARLINK-1764           
1 46343U 20062U   23358.32741134  .00002502  00000+0  18681-3 0  9991
2 46343  53.0551  16.5206 0001337  82.3601 277.7540 15.06399147183239
STARLINK-1765           
1 46344U 20062V   23358.27950323 -.00000094  00000+0  12567-4 0  9991
2 46344  53.0577  16.7449 0001617 103.5457 256.5712 15.06387740183204
STARLINK-1767           
1 46345U 20062W   23358.14865513 -.00000159  00000+0  82265-5 0  9999
2 46345  53.0565  37.3337 0001204  80.7587 279.3538 15.06386170182922
STARLINK-1547           
1 46347U 20062Y   23358.30575355  .00009641  00000+0  66517-3 0  9995
2 46347  53.0550 351.6164 0001621 101.7286 258.3885 15.06404712183578
STARLINK-1553           
1 46348U 20062Z   23358.28317522 -.00004558  00000+0 -28731-3 0  9993
2 46348  53.0555  16.7135 0002051  25.2150 334.8939 15.06392575183224
STARLINK-1575           
1 46349U 20062AA  23357.41744375  .00001631  00000+0  12840-3 0  9999
2 46349  53.0549 355.6109 0001554  70.8381 289.2776 15.06399637183265
STARLINK-1617           
1 46350U 20062AB  23358.11178257  .00006228  00000+0  43670-3 0  9991
2 46350  53.0555  37.4875 0000829  85.0717 275.0367 15.06391686182921
STARLINK-1646           
1 46351U 20062AC  23358.05096850  .00004543  00000+0  32366-3 0  9991
2 46351  53.0544  17.7623 0001663  85.8789 274.2390 15.06404979183193
STARLINK-1653           
1 46352U 20062AD  23358.49696866  .00000046  00000+0  21984-4 0  9992
2 46352  53.0553  15.7583 0001342  91.5192 268.5951 15.06392705183263
STARLINK-1656           
1 46353U 20062AE  23358.49511778 -.00000928  00000+0 -43432-4 0  9994
2 46353  53.0555  35.7606 0001252 115.2974 244.8145 15.06397620182976
STARLINK-1657           
1 46354U 20062AF  23358.48406319  .00005618  00000+0  39580-3 0  9995
2 46354  53.0552  35.8213 0001308  86.9106 273.2032 15.06395743182977
STARLINK-1661           
1 46355U 20062AG  23358.12653166  .00000251  00000+0  35752-4 0  9997
2 46355  53.0547  37.4256 0001268  82.6472 277.4661 15.06397531182927
STARLINK-1665           
1 46356U 20062AH  23358.14128201  .00000572  00000+0  57309-4 0  9995
2 46356  53.0552  37.3834 0001366 108.9781 251.1356 15.06394360182926
STARLINK-1666           
1 46357U 20062AJ  23358.06939732  .00000811  00000+0  73331-4 0  9995
2 46357  53.0553  17.6777 0001313  83.5559 276.5580 15.06394851183193
STARLINK-1690           
1 46358U 20062AK  23358.11547097  .00002583  00000+0  19224-3 0  9999
2 46358  53.0552  37.4764 0001400  76.3507 283.7637 15.06403195182924
STARLINK-1707           
1 46359U 20062AL  23358.42739529  .00010598  00000+0  72915-3 0  9998
2 46359  53.0550 351.0683 0001640  98.8267 261.2908 15.06407369183599
STARLINK-1713           
1 46360U 20062AM  23358.25046489  .00003012  00000+0  22101-3 0  9992
2 46360  53.0548 351.8692 0001539  80.2387 279.8776 15.06399419183573
